     2.100          NAVIGATION                              RINEX VERSION / TYPE
fic2rin                                 03/14/2017 00:05:38 PGM / RUN BY / DATE
                                                            END OF HEADER
31 17  3 13  8  0  0.0  .213789287955D-03 -.227373675443D-11  .000000000000D+00
     .104000000000D+03 -.415625000000D+02  .471841082646D-08  .309426567963D+01
    -.212527811527D-05  .849869532976D-02  .388734042645D-05  .515365789223D+04
     .115200000000D+06 -.242143869400D-07  .203120728131D+01  .819563865662D-07
     .967555107948D+00  .310968750000D+03 -.271492820994D+00 -.824391482071D-08
    -.308941440080D-09  .100000000000D+01  .194000000000D+04  .000000000000D+00
     .240000000000D+01  .000000000000D+00 -.135041773319D-07  .104000000000D+03
     .108006000000D+06  .400000000000D+01
32 17  3 13  8  0  0.0 -.350565183908D-03 -.128466126625D-10  .000000000000D+00
     .860000000000D+02  .755000000000D+02  .469555273148D-08  .643637428231D+00
     .396557152271D-05  .862505519763D-03  .797025859356D-05  .515370447350D+04
     .115200000000D+06  .279396772385D-07  .944306467960D+00 -.279396772385D-07
     .958305423645D+00  .223968750000D+03 -.275801428095D+01 -.822641409174D-08
     .416088760338D-09  .100000000000D+01  .194000000000D+04  .000000000000D+00
     .240000000000D+01  .000000000000D+00  .465661287308D-09  .860000000000D+02
     .108006000000D+06  .400000000000D+01
11 17  3 13  7 59 44.0 -.674654264003D-03 -.227373675443D-11  .000000000000D+00
     .740000000000D+02  .260000000000D+02  .639455207305D-08 -.294619437815D+01
     .124983489513D-05  .166346834740D-01  .133551657200D-05  .515369886398D+04
     .115184000000D+06  .307336449623D-06 -.153461268072D+01  .135973095894D-06
     .899597189868D+00  .317500000000D+03  .162521765176D+01 -.898394564597D-08
     .194650965137D-09  .100000000000D+01  .194000000000D+04  .000000000000D+00
     .240000000000D+01  .000000000000D+00 -.121071934700D-07  .740000000000D+02
     .108456000000D+06  .400000000000D+01
12 17  3 13  7 59 44.0  .387093517929D-03 -.454747350886D-12  .000000000000D+00
     .100000000000D+01 -.272187500000D+02  .345942981342D-08  .272710022525D+01
    -.138394534588D-05  .654851284344D-02  .136308372021D-04  .515357612801D+04
     .115184000000D+06  .260770320892D-07  .310289929402D+01 -.856816768646D-07
     .989916812889D+00  .130281250000D+03  .808391590012D+00 -.739852246387D-08
    -.154292141173D-09  .100000000000D+01  .194000000000D+04  .000000000000D+00
     .240000000000D+01  .000000000000D+00 -.121071934700D-07  .100000000000D+01
     .108456000000D+06  .400000000000D+01
21 17  3 13  7 59 44.0 -.517589505762D-03  .181898940355D-11  .000000000000D+00
     .240000000000D+02 -.420625000000D+02  .544415534235D-08  .216262049554D+01
    -.259652733803D-05  .239878029097D-01  .198744237423D-05  .515371976471D+04
     .115184000000D+06  .288709998131D-06 -.117901464688D+01 -.275671482086D-06
     .938723541009D+00  .327562500000D+03 -.169728708209D+01 -.845713798803D-08
    -.260010830495D-09  .100000000000D+01  .194000000000D+04  .000000000000D+00
     .240000000000D+01  .000000000000D+00 -.977888703346D-08  .240000000000D+02
     .110196000000D+06  .400000000000D+01
 7 17  3 13  7 59 44.0  .373721122742D-03 -.397903932026D-11  .000000000000D+00
     .430000000000D+02 -.444687500000D+02  .473876881731D-08 -.294457277149D+01
    -.234507024288D-05  .102174091153D-01  .395625829697D-05  .515359517097D+04
     .115184000000D+06 -.614672899246D-07  .202058166696D+01 -.135973095894D-06
     .962787064403D+00  .305500000000D+03 -.261436019332D+01 -.820677041636D-08
    -.238938524177D-09  .100000000000D+01  .194000000000D+04  .000000000000D+00
     .240000000000D+01  .000000000000D+00 -.111758708954D-07  .430000000000D+02
     .111456000000D+06  .400000000000D+01
 5 17  3 13  7 59 44.0 -.560493208468D-04  .193267624127D-11  .000000000000D+00
     .360000000000D+02 -.519687500000D+02  .464947938376D-08  .602821531056D+00
    -.249221920967D-05  .491518795025D-02  .123530626297D-04  .515371155357D+04
     .115184000000D+06  .260770320892D-07 -.110821831808D+00  .484287738800D-07
     .947217642754D+00  .131062500000D+03  .548292665516D+00 -.813855328913D-08
    -.372872674501D-09  .100000000000D+01  .194000000000D+04  .000000000000D+00
     .240000000000D+01  .000000000000D+00 -.107102096081D-07  .360000000000D+02
     .112506000000D+06  .400000000000D+01
 4 17  3 13  7 59 44.0  .464264303446D-06  .454747350886D-12  .000000000000D+00
     .140000000000D+02 -.303125000000D+02  .502163774280D-08  .916918543692D+00
    -.154227018356D-05  .900442444254D-02  .126156955957D-04  .515374064636D+04
     .115184000000D+06 -.126659870148D-06  .307149970020D+01  .111758708954D-07
     .982684745701D+00  .149125000000D+03  .879131949020D+00 -.773103631441D-08
    -.286797660559D-09  .100000000000D+01  .194000000000D+04  .000000000000D+00
     .240000000000D+01  .630000000000D+02 -.195577740669D-07  .140000000000D+02
     .113046000000D+06  .400000000000D+01
13 17  3 13  7 59 44.0 -.736163929105D-04 -.159161572810D-11  .000000000000D+00
     .190000000000D+02  .794062500000D+02  .446840041253D-08 -.192085188630D+01
     .405684113503D-05  .401072949171D-02  .703148543835D-05  .515368615532D+04
     .115184000000D+06  .447034835815D-07  .106660885076D+01  .113621354103D-06
     .969803276565D+00  .248625000000D+03  .184018384922D+01 -.814462497061D-08
     .417874549009D-09  .100000000000D+01  .194000000000D+04  .000000000000D+00
     .240000000000D+01  .000000000000D+00 -.111758708954D-07  .190000000000D+02
     .113706000000D+06  .400000000000D+01
22 17  3 13  7 59 44.0  .746608711779D-04 -.117097442853D-10  .000000000000D+00
     .340000000000D+02 -.490312500000D+02  .519985945216D-08 -.734207868556D+00
    -.257603824139D-05  .748838356230D-02  .112578272820D-04  .515357447815D+04
     .115184000000D+06 -.139698386192D-06 -.138148841631D+00  .745058059692D-07
     .923975069488D+00  .142093750000D+03 -.178823316174D+01 -.847963892528D-08
    -.281797452281D-09  .100000000000D+01  .194000000000D+04  .000000000000D+00
     .240000000000D+01  .000000000000D+00 -.176951289177D-07  .340000000000D+02
     .113976000000D+06  .400000000000D+01
 4 17  3 13  9 59 44.0  .467523932457D-06  .454747350886D-12  .000000000000D+00
     .190000000000D+02 -.385625000000D+02  .493413409792D-08  .196693345762D+01
    -.196509063244D-05  .900517567061D-02  .130608677864D-04  .515374297905D+04
     .122384000000D+06 -.141561031342D-06  .307144386939D+01 -.139698386192D-06
     .982683098455D+00  .139687500000D+03  .879259066361D+00 -.763888961899D-08
    -.240724312848D-09  .100000000000D+01  .194000000000D+04  .000000000000D+00
     .240000000000D+01  .630000000000D+02 -.195577740669D-07  .190000000000D+02
     .115206000000D+06  .400000000000D+01
 5 17  3 13  9 59 44.0 -.560348853469D-04  .193267624127D-11  .000000000000D+00
     .370000000000D+02 -.487812500000D+02  .475662670402D-08  .165330431545D+01
    -.239536166191D-05  .491447397508D-02  .120289623737D-04  .515370826721D+04
     .122384000000D+06 -.745058059692D-07 -.110880794722D+00  .117346644402D-06
     .947215215773D+00  .143125000000D+03  .547970226668D+00 -.810712340852D-08
    -.291797868838D-09  .100000000000D+01  .194000000000D+04  .000000000000D+00
     .240000000000D+01  .000000000000D+00 -.107102096081D-07  .370000000000D+02
     .115206000000D+06  .400000000000D+01
 7 17  3 13  9 59 44.0  .373692717403D-03 -.397903932026D-11  .000000000000D+00
     .440000000000D+02 -.435000000000D+02  .473876881731D-08 -.189436695846D+01
    -.236928462982D-05  .102174610365D-01  .373460352421D-05  .515359478378D+04
     .122384000000D+06  .391155481339D-07  .202052208523D+01 -.147148966789D-06
     .962785510784D+00  .308062500000D+03 -.261433539539D+01 -.824641492485D-08
    -.188579283656D-09  .100000000000D+01  .194000000000D+04  .000000000000D+00
     .240000000000D+01  .000000000000D+00 -.111758708954D-07  .440000000000D+02
     .115206000000D+06  .400000000000D+01
12 17  3 13  9 59 44.0  .387089792639D-03 -.454747350886D-12  .000000000000D+00
     .130000000000D+02 -.258750000000D+02  .344550066179D-08 -.250593008774D+01
    -.138022005558D-05  .654859130736D-02  .132657587528D-04  .515357585144D+04
     .122384000000D+06  .335276126862D-07  .310284611109D+01 -.577419996262D-07
     .989915712774D+00  .137625000000D+03  .808468871585D+00 -.738887920505D-08
    -.154292141173D-09  .100000000000D+01  .194000000000D+04  .000000000000D+00
     .240000000000D+01  .000000000000D+00 -.121071934700D-07  .130000000000D+02
     .115206000000D+06  .400000000000D+01
13 17  3 13  9 59 44.0 -.736280344427D-04 -.159161572810D-11  .000000000000D+00
     .310000000000D+02  .774375000000D+02  .456054710795D-08 -.870666047947D+00
     .410154461861D-05  .401052297093D-02  .679679214954D-05  .515368618393D+04
     .122384000000D+06 -.260770320892D-07  .106654964354D+01  .372529029846D-07
     .969806004907D+00  .251093750000D+03  .184017112329D+01 -.823034282681D-08
     .438946855327D-09  .100000000000D+01  .194000000000D+04  .000000000000D+00
     .240000000000D+01  .000000000000D+00 -.111758708954D-07  .310000000000D+02
     .115206000000D+06  .400000000000D+01
21 17  3 13  9 59 44.0 -.517576467246D-03  .181898940355D-11  .000000000000D+00
     .700000000000D+02 -.452187500000D+02  .551165815411D-08 -.307039433393D+01
    -.249594449997D-05  .239880358567D-01  .195950269699D-05  .515371920395D+04
     .122384000000D+06  .439584255219D-06 -.117907593583D+01 -.521540641785D-07
     .938721769415D+00  .326968750000D+03 -.169729722889D+01 -.846892419326D-08
    -.145363197818D-09  .100000000000D+01  .194000000000D+04  .000000000000D+00
     .240000000000D+01  .000000000000D+00 -.977888703346D-08  .700000000000D+02
     .115206000000D+06  .400000000000D+01
